{"type": "FeatureCollection", "features": [ {"type": "Feature", "properties": {"norad_id": 30208, "name": "FENGYUN 1C DEB", "group": "fengyun-1c-debris", "lat": 71.82788188398008, "lon": -161.35154926701097, "alt_km": 827.5942954751335, "timestamp": "2025-12-16T10:53:45.744077+00:00", "meta": {"OBJECT_NAME": "FENGYUN 1C DEB", "OBJECT_ID": "1999-025VR", "EPOCH": "2025-12-15T22:53:54.358368", "MEAN_MOTION": 14.23533745, "ECCENTRICITY": 0.00329523, "INCLINATION": 98.5617, "RA_OF_ASC_NODE": 350.8425, "ARG_OF_PERICENTER": 260.5783, "MEAN_ANOMALY": 165.2539, "EPHEMERIS_TYPE": 0, "CLASSIFICATION_TYPE": "U", "NORAD_CAT_ID": 30208, "ELEMENT_SET_NO": 999, "REV_AT_EPOCH": 97883, "BSTAR": 0.00047856414, "MEAN_MOTION_DOT": 1.052e-05, "MEAN_MOTION_DDOT": 0}, "tle": {"line1": "1 30208U 99025VR  25349.95410137  .00001052  00000+0  47856-3 0  9991", "line2": "2 30208  98.5617 350.8425 0032952 260.5783 165.2539 14.23533745978833"}}, "geometry": {"type": "Point", "coordinates": [-161.35154926701097, 71.82788188398008]}}, {"type": "Feature", "properties": {"norad_id": 30209, "name": "FENGYUN 1C DEB", "group": "fengyun-1c-debris", "lat": -51.80889884868342, "lon": -1.5738929331351579, "alt_km": 851.0321788579249, "timestamp": "2025-12-16T10:53:45.744087+00:00", "meta": {"OBJECT_NAME": "FENGYUN 1C DEB", "OBJECT_ID": "1999-025VS", "EPOCH": "2025-12-15T21:51:29.437632", "MEAN_MOTION": 14.12907344, "ECCENTRICITY": 0.0038749, "INCLINATION": 98.7141, "RA_OF_ASC_NODE": 346.655, "ARG_OF_PERICENTER": 229.6687, "MEAN_ANOMALY": 195.6552, "EPHEMERIS_TYPE": 0, "CLASSIFICATION_TYPE": "U", "NORAD_CAT_ID": 30209, "ELEMENT_SET_NO": 999, "REV_AT_EPOCH": 97251, "BSTAR": 0.00038139234, "MEAN_MOTION_DOT": 6.72e-06, "MEAN_MOTION_DDOT": 0}, "tle": {"line1": "1 30209U 99025VS  25349.91075738  .00000672  00000+0  38139-3 0  9993", "line2": "2 30209  98.7141 346.6550 0038749 229.6687 195.6552 14.12907344972518"}}, "geometry": {"type": "Point", "coordinates": [-1.5738929331351579, -51.80889884868342]}}, {"type": "Feature", "properties": {"norad_id": 30210, "name": "FENGYUN 1C DEB", "group": "fengyun-1c-debris", "lat": -70.47400149685234, "lon": -166.8934661342958, "alt_km": 896.8850923841455, "timestamp": "2025-12-16T10:53:45.744097+00:00", "meta": {"OBJECT_NAME": "FENGYUN 1C DEB", "OBJECT_ID": "1999-025VT", "EPOCH": "2025-12-15T22:35:04.543584", "MEAN_MOTION": 14.08274474, "ECCENTRICITY": 0.00569316, "INCLINATION": 99.1903, "RA_OF_ASC_NODE": 39.7466, "ARG_OF_PERICENTER": 127.6174, "MEAN_ANOMALY": 45.2621, "EPHEMERIS_TYPE": 0, "CLASSIFICATION_TYPE": "U", "NORAD_CAT_ID": 30210, "ELEMENT_SET_NO": 999, "REV_AT_EPOCH": 96802, "BSTAR": 0.00054401672, "MEAN_MOTION_DOT": 8.98e-06, "MEAN_MOTION_DDOT": 0}, "tle": {"line1": "1 30210U 99025VT  25349.94102481  .00000898  00000+0  54402-3 0  9995", "line2": "2 30210  99.1903  39.7466 0056931 127.6174  45.2621 14.08274474968022"}}, "geometry": {"type": "Point", "coordinates": [-166.8934661342958, -70.47400149685234]}}, {"type": "Feature", "properties": {"norad_id": 30212, "name": "FENGYUN 1C DEB", "group": "fengyun-1c-debris", "lat": -7.187531725557426, "lon": -142.85404878938846, "alt_km": 948.4519577311776, "timestamp": "2025-12-16T10:53:45.744108+00:00", "meta": {"OBJECT_NAME": "FENGYUN 1C DEB", "OBJECT_ID": "1999-025VV", "EPOCH": "2025-12-15T09:08:55.490784", "MEAN_MOTION": 13.97057607, "ECCENTRICITY": 0.00969894, "INCLINATION": 99.4572, "RA_OF_ASC_NODE": 214.8385, "ARG_OF_PERICENTER": 230.0974, "MEAN_ANOMALY": 129.1632, "EPHEMERIS_TYPE": 0, "CLASSIFICATION_TYPE": "U", "NORAD_CAT_ID": 30212, "ELEMENT_SET_NO": 999, "REV_AT_EPOCH": 96262, "BSTAR": 0.00017329154, "MEAN_MOTION_DOT": 2.04e-06, "MEAN_MOTION_DDOT": 0}, "tle": {"line1": "1 30212U 99025VV  25349.38119781  .00000204  00000+0  17329-3 0  9994", "line2": "2 30212  99.4572 214.8385 0096989 230.0974 129.1632 13.97057607962627"}}, "geometry": {"type": "Point", "coordinates": [-142.85404878938846, -7.187531725557426]}}, {"type": "Feature", "properties": {"norad_id": 30213, "name": "FENGYUN 1C DEB", "group": "fengyun-1c-debris", "lat": -73.99360783264555, "lon": -147.109393032498, "alt_km": 813.3999325482055, "timestamp": "2025-12-16T10:53:45.744118+00:00", "meta": {"OBJECT_NAME": "FENGYUN 1C DEB", "OBJECT_ID": "1999-025VW", "EPOCH": "2025-12-15T15:43:52.248576", "MEAN_MOTION": 14.11594293, "ECCENTRICITY": 0.00718816, "INCLINATION": 99.1228, "RA_OF_ASC_NODE": 66.1442, "ARG_OF_PERICENTER": 235.6311, "MEAN_ANOMALY": 285.0943, "EPHEMERIS_TYPE": 0, "CLASSIFICATION_TYPE": "U", "NORAD_CAT_ID": 30213, "ELEMENT_SET_NO": 999, "REV_AT_EPOCH": 96556, "BSTAR": 0.0011547925, "MEAN_MOTION_DOT": 2.103e-05, "MEAN_MOTION_DDOT": 0}, "tle": {"line1": "1 30213U 99025VW  25349.65546584  .00002103  00000+0  11548-2 0  9996", "line2": "2 30213  99.1228  66.1442 0071881 235.6311 285.0943 14.11594293965562"}}, "geometry": {"type": "Point", "coordinates": [-147.109393032498, -73.99360783264555]}}, {"type": "Feature", "properties": {"norad_id": 30214, "name": "FENGYUN 1C DEB", "group": "fengyun-1c-debris", "lat": -29.82402822042839, "lon": 68.66929545708348, "alt_km": 787.877259101957, "timestamp": "2025-12-16T10:53:45.744128+00:00", "meta": {"OBJECT_NAME": "FENGYUN 1C DEB", "OBJECT_ID": "1999-025VX", "EPOCH": "2025-12-15T15:38:37.935744", "MEAN_MOTION": 14.30949155, "ECCENTRICITY": 0.00206478, "INCLINATION": 98.7252, "RA_OF_ASC_NODE": 62.8136, "ARG_OF_PERICENTER": 36.0515, "MEAN_ANOMALY": 124.0713, "EPHEMERIS_TYPE": 0, "CLASSIFICATION_TYPE": "U", "NORAD_CAT_ID": 30214, "ELEMENT_SET_NO": 999, "REV_AT_EPOCH": 97608, "BSTAR": 0.0011702288, "MEAN_MOTION_DOT": 3.039e-05, "MEAN_MOTION_DDOT": 0}, "tle": {"line1": "1 30214U 99025VX  25349.65182796  .00003039  00000+0  11702-2 0  9999", "line2": "2 30214  98.7252  62.8136 0020647  36.0515 124.0713 14.30949155976089"}}, "geometry": {"type": "Point", "coordinates": [68.66929545708348, -29.82402822042839]}}, {"type": "Feature", "properties": {"norad_id": 30217, "name": "FENGYUN 1C DEB", "group": "fengyun-1c-debris", "lat": 37.81850879752681, "lon": -32.53217410306681, "alt_km": 741.216040953158, "timestamp": "2025-12-16T10:53:45.744138+00:00", "meta": {"OBJECT_NAME": "FENGYUN 1C DEB", "OBJECT_ID": "1999-025WA", "EPOCH": "2025-12-15T21:14:08.503296", "MEAN_MOTION": 14.2483828, "ECCENTRICITY": 0.01407193, "INCLINATION": 98.4315, "RA_OF_ASC_NODE": 333.532, "ARG_OF_PERICENTER": 90.6886, "MEAN_ANOMALY": 271.042, "EPHEMERIS_TYPE": 0, "CLASSIFICATION_TYPE": "U", "NORAD_CAT_ID": 30217, "ELEMENT_SET_NO": 999, "REV_AT_EPOCH": 98118, "BSTAR": 0.00024072152, "MEAN_MOTION_DOT": 5.81e-06, "MEAN_MOTION_DDOT": 0}, "tle": {"line1": "1 30217U 99025WA  25349.88482064  .00000581  00000+0  24072-3 0  9992", "line2": "2 30217  98.4315 333.5320 0140719  90.6886 271.0420 14.24838280981186"}}, "geometry": {"type": "Point", "coordinates": [-32.53217410306681, 37.81850879752681]}}, {"type": "Feature", "properties": {"norad_id": 30218, "name": "FENGYUN 1C DEB", "group": "fengyun-1c-debris", "lat": -39.886301596885964, "lon": 87.53841240608924, "alt_km": 789.7022711251338, "timestamp": "2025-12-16T10:53:45.744148+00:00", "meta": {"OBJECT_NAME": "FENGYUN 1C DEB", "OBJECT_ID": "1999-025WB", "EPOCH": "2025-12-15T05:08:43.747008", "MEAN_MOTION": 14.28841314, "ECCENTRICITY": 0.00706447, "INCLINATION": 98.9872, "RA_OF_ASC_NODE": 78.6614, "ARG_OF_PERICENTER": 246.8779, "MEAN_ANOMALY": 179.1909, "EPHEMERIS_TYPE": 0, "CLASSIFICATION_TYPE": "U", "NORAD_CAT_ID": 30218, "ELEMENT_SET_NO": 999, "REV_AT_EPOCH": 97144, "BSTAR": 0.0018445871, "MEAN_MOTION_DOT": 4.734e-05, "MEAN_MOTION_DDOT": 0}, "tle": {"line1": "1 30218U 99025WB  25349.21439522  .00004734  00000+0  18446-2 0  9992", "line2": "2 30218  98.9872  78.6614 0070644 246.8779 179.1909 14.28841314971442"}}, "geometry": {"type": "Point", "coordinates": [87.53841240608924, -39.886301596885964]}}, {"type": "Feature", "properties": {"norad_id": 30221, "name": "FENGYUN 1C DEB", "group": "fengyun-1c-debris", "lat": 77.600379370102, "lon": -55.84052827973795, "alt_km": 692.3978182173241, "timestamp": "2025-12-16T10:53:45.744158+00:00", "meta": {"OBJECT_NAME": "FENGYUN 1C DEB", "OBJECT_ID": "1999-025WE", "EPOCH": "2025-12-15T17:50:37.733856", "MEAN_MOTION": 14.4581869, "ECCENTRICITY": 0.01453146, "INCLINATION": 98.9564, "RA_OF_ASC_NODE": 77.5761, "ARG_OF_PERICENTER": 32.4578, "MEAN_ANOMALY": 328.5447, "EPHEMERIS_TYPE": 0, "CLASSIFICATION_TYPE": "U", "NORAD_CAT_ID": 30221, "ELEMENT_SET_NO": 999, "REV_AT_EPOCH": 99444, "BSTAR": 0.00019877423, "MEAN_MOTION_DOT": 7.48e-06, "MEAN_MOTION_DDOT": 0}, "tle": {"line1": "1 30221U 99025WE  25349.74349229  .00000748  00000+0  19877-3 0  9999", "line2": "2 30221  98.9564  77.5761 0145314  32.4578 328.5447 14.45818690994440"}}, "geometry": {"type": "Point", "coordinates": [-55.84052827973795, 77.600379370102]}}, {"type": "Feature", "properties": {"norad_id": 30222, "name": "FENGYUN 1C DEB", "group": "fengyun-1c-debris", "lat": -54.69427256936939, "lon": -168.95691400551715, "alt_km": 910.7764189633035, "timestamp": "2025-12-16T10:53:45.744169+00:00", "meta": {"OBJECT_NAME": "FENGYUN 1C DEB", "OBJECT_ID": "1999-025WF", "EPOCH": "2025-12-15T08:25:51.056832", "MEAN_MOTION": 14.04074836, "ECCENTRICITY": 0.00378585, "INCLINATION": 98.841, "RA_OF_ASC_NODE": 22.6658, "ARG_OF_PERICENTER": 29.9763, "MEAN_ANOMALY": 35.0574, "EPHEMERIS_TYPE": 0, "CLASSIFICATION_TYPE": "U", "NORAD_CAT_ID": 30222, "ELEMENT_SET_NO": 999, "REV_AT_EPOCH": 96875, "BSTAR": -1.817493e-06, "MEAN_MOTION_DOT": -4.6e-07, "MEAN_MOTION_DDOT": 0}, "tle": {"line1": "1 30222U 99025WF  25349.35128538 -.00000046  00000+0 -18175-5 0  9990", "line2": "2 30222  98.8410  22.6658 0037858  29.9763  35.0574 14.04074836968753"}}, "geometry": {"type": "Point", "coordinates": [-168.95691400551715, -54.69427256936939]}}]}